STARLINK-4120           
1 53537U 22101L   22241.58334491 -.01198631  00000+0 -82684-2 0  9997
2 53537  53.2176 106.2933 0003053 358.3390 170.1952 15.76659833  1307
STARLINK-4118           
1 53538U 22101M   22241.58334491 -.01197496  00000+0 -82221-2 0  9993
2 53538  53.2176 106.2875 0003036   2.6721 168.9429 15.76761668  1305
STARLINK-4123           
1 53539U 22101N   22241.58334491 -.01196452  00000+0 -82399-2 0  9991
2 53539  53.2176 106.2911 0003008   6.3718 163.1958 15.76691792  1307
STARLINK-4486           
1 53540U 22101P   22241.58334491 -.01198261  00000+0 -82128-2 0  9993
2 53540  53.2175 106.2854 0003423 355.8292 176.8014 15.76797769  1309
STARLINK-4485           
1 53541U 22101Q   22241.58334491 -.01197395  00000+0 -82332-2 0  9998
2 53541  53.2176 106.2891 0003255   1.1684 169.4257 15.76726490  1301
STARLINK-4489           
1 53542U 22101R   22241.58334491 -.01197321  00000+0 -81946-2 0  9998
2 53542  53.2175 106.2834 0003238   1.8367 171.8231 15.76830082  1306
STARLINK-4297           
1 53543U 22101S   22241.58334491 -.01197465  00000+0 -82145-2 0  9990
2 53543  53.2175 106.2861 0003242   0.9799 171.1461 15.76778904  1303
STARLINK-4303           
1 53544U 22101T   22241.58334491 -.01197488  00000+0 -81838-2 0  9994
2 53544  53.2175 106.2814 0003167 359.4405 175.2417 15.76863961  1308
STARLINK-4475           
1 53545U 22101U   22241.58334491 -.01197891  00000+0 -82054-2 0  9994
2 53545  53.2175 106.2841 0003230 357.7143 175.4372 15.76812756  1308
STARLINK-4477           
1 53546U 22101V   22241.58334491 -.01299008  49097-3 -37172-2 0  9992
2 53546  53.2176 105.6863 0030064  73.0851  38.3616 15.91750153  1303
STARLINK-4474           
1 53547U 22101W   22241.58334491 -.01197882  00000+0 -81926-2 0  9993
2 53547  53.2175 106.2821 0003286 357.6917 176.4825 15.76846647  1307
STARLINK-4513           
1 53548U 22101X   22241.58334491 -.01198039  00000+0 -81620-2 0  9990
2 53548  53.2175 106.2775 0003364 351.6702 185.0485 15.76932333  1305
STARLINK-4516           
1 53549U 22101Y   22241.58334491 -.01196581  00000+0 -81705-2 0  9995
2 53549  53.2175 106.2801 0003253   4.3097 170.8844 15.76880049  1309
STARLINK-4518           
1 53550U 22101Z   22241.58334491 -.01197591  00000+0 -81520-2 0  9994
2 53550  53.2175 106.2765 0003444 347.4210 189.8052 15.76949165  1306
STARLINK-4514           
1 53551U 22101AA  22241.58334491 -.01197780  00000+0 -81733-2 0  9991
2 53551  53.2175 106.2791 0003219 353.9533 181.7485 15.76898034  1305
STARLINK-4495           
1 53552U 22101AB  22241.58334491 -.01197534  00000+0 -81330-2 0  9992
2 53552  53.2175 106.2735 0003423 348.4441 190.3044 15.77000250  1301
STARLINK-4501           
1 53553U 22101AC  22241.58334491 -.01197517  00000+0 -81461-2 0  9999
2 53553  53.2175 106.2751 0003269 355.1032 182.6316 15.76966144  1307
STARLINK-4506           
1 53554U 22101AD  22241.58334491 -.01197304  00000+0 -81188-2 0  9990
2 53554  53.2175 106.2714 0003463 354.1359 185.6278 15.77033818  1308
STARLINK-4504           
1 53555U 22101AE  22241.58334491 -.01197082  00000+0 -81365-2 0  9991
2 53555  53.2175 106.2741 0003282 359.1496 179.0920 15.76983136  1302
STARLINK-4505           
1 53556U 22101AF  22241.58334491 -.01197139  00000+0 -81058-2 0  9994
2 53556  53.2175 106.2694 0003320 357.8989 182.8755 15.77068008  1306
STARLINK-4502           
1 53557U 22101AG  22241.58334491 -.01197142  00000+0 -81231-2 0  9992
2 53557  53.2175 106.2721 0003617 346.7377 192.5202 15.77016469  1304
STARLINK-4494           
1 53558U 22101AH  22241.58334491 -.01197158  00000+0 -80939-2 0  9994
2 53558  53.2175 106.2674 0003347 357.4183 184.3729 15.77100742  1307
STARLINK-4508           
1 53559U 22101AJ  22241.58334491 -.01197047  00000+0 -81111-2 0  9995
2 53559  53.2175 106.2701 0003410 353.1739 187.0979 15.77050284  1302
STARLINK-4564           
1 53560U 22101AK  22241.58334491 -.01196835  00000+0 -80776-2 0  9997
2 53560  53.2175 106.2654 0003629 347.9723 194.8243 15.77134910  1306
STARLINK-4563           
1 53561U 22101AL  22241.58334491 -.01197180  00000+0 -80997-2 0  9997
2 53561  53.2175 106.2680 0003320   1.5167 179.7601 15.77085624  1306
STARLINK-4565           
1 53562U 22101AM  22241.58334491 -.01197096  00000+0 -80687-2 0  9990
2 53562  53.2175 106.2634 0003336   1.5848 182.2209 15.77168967  1304
STARLINK-4561           
1 53563U 22101AN  22241.58334491 -.01196817  00000+0 -80839-2 0  9990
2 53563  53.2175 106.2660 0003612 347.7630 194.5321 15.77117437  1302
STARLINK-4577           
1 53564U 22101AP  22241.58334491 -.01196733  00000+0 -80537-2 0  9993
2 53564  53.2175 106.2614 0003347 358.5163 186.2951 15.77202613  1306
STARLINK-4575           
1 53565U 22101AQ  22241.58334491 -.01197346  00000+0 -80758-2 0  9990
2 53565  53.2175 106.2640 0003421 355.8065 187.4876 15.77153473  1308
STARLINK-4576           
1 53566U 22101AR  22241.58334491 -.01196973  00000+0 -80436-2 0  9999
2 53566  53.2175 106.2594 0003280   1.8549 183.9622 15.77236447  1308
STARLINK-4585           
1 53567U 22101AS  22241.58334491 -.01196583  00000+0 -80598-2 0  9996
2 53567  53.2175 106.2620 0003064   6.5225 177.7820 15.77186466  1308
STARLINK-4583           
1 53568U 22101AT  22241.58334491 -.01197010  00000+0 -80253-2 0  9991
2 53568  53.2175 106.2564 0003290   2.6319 184.6867 15.77287695  1302
STARLINK-4582           
1 53569U 22101AU  22241.58334491 -.01196804  00000+0 -80485-2 0  9999
2 53569  53.2175 106.2600 0003337 359.1467 186.1727 15.77218588  1307
STARLINK-4550           
1 53570U 22101AV  22241.58334491 -.01196869  00000+0 -80308-2 0  9996
2 53570  53.2175 106.2575 0003298   0.5722 186.2520 15.77269414  1303
STARLINK-4584           
1 53571U 22101AW  22241.58334491 -.01196930  00000+0 -80371-2 0  9996
2 53571  53.2175 106.2580 0003313   0.8658 185.4541 15.77253062  1305
STARLINK-4555           
1 53572U 22101AX  22241.58334491 -.01196460  00000+0 -80033-2 0  9990
2 53572  53.2175 106.2535 0003148   7.5880 181.2256 15.77339098  1304
STARLINK-4547           
1 53573U 22101AY  22241.58334491 -.01197063  00000+0 -80198-2 0  9993
2 53573  53.2175 106.2550 0003167   6.7339 181.0797 15.77305705  1309
STARLINK-4559           
1 53574U 22101AZ  22241.58334491 -.01197174  00000+0 -79959-2 0  9990
2 53574  53.2175 106.2516 0003219   5.6464 184.1642 15.77373594  1301
STARLINK-4551           
1 53575U 22101BA  22241.58334491 -.01196983  00000+0 -80129-2 0  9999
2 53575  53.2175 106.2540 0003264   6.0202 182.2975 15.77321847  1306
STARLINK-4581           
1 53576U 22101BB  22241.58334491 -.01197219  00000+0 -79903-2 0  9991
2 53576  53.2175 106.2506 0003140   6.5965 183.7093 15.77391152  1306
STARLINK-4553           
1 53577U 22101BC  22241.58334491 -.01197189  00000+0 -80016-2 0  9995
2 53577  53.2175 106.2520 0003291   5.6000 183.7094 15.77357100  1306
STARLINK-4556           
1 53578U 22101BD  22241.58334491 -.01196579  00000+0 -79804-2 0  9991
2 53578  53.2175 106.2496 0003085   5.4533 185.3595 15.77406044  1305
STARLINK-4580           
1 53579U 22101BE  22241.58334491 -.01196781  00000+0 -79772-2 0  9991
2 53579  53.2175 106.2479 0003276   1.3632 189.9847 15.77416583  1303
FALCON 9 DEB            
1 53580U 22101BF  22241.48736332  .00605916  18584-3  69572-3 0  9992
2 53580  53.2186 106.0067 0061168  79.0704 281.7204 16.04442591  1569
FALCON 9 DEB            
1 53581U 22101BG  22241.04825609  .00564401  16155-3  66170-3 0  9997
2 53581  53.2162 108.2399 0057641  78.9661 281.7848 16.04552571  1493
FALCON 9 DEB            
1 53582U 22101BH  22241.35310208  .00531778  14694-3  57501-3 0  9991
2 53582  53.2153 106.5759 0054876  74.3193 286.3887 16.06062525  1549
FALCON 9 DEB            
1 53583U 22101BJ  22241.35287084  .00569251  16811-3  61284-3 0  9990
2 53583  53.2163 106.5741 0055394  75.9678 284.7506 16.06066404  1543
CHUANGXIN 16 (CX-16)    
1 53586U 22102A   22241.64920762  .00001172  00000+0  10074-3 0  9996
2 53586  28.9993 325.8932 0004655 319.1741  40.8506 14.91643726   980
BEIJING-3B              
1 53587U 22103A   22241.48449162  .00000466  00000+0  57590-4 0  9990
2 53587  97.9420 310.1053 0013592 246.4744 113.5062 14.87444931   806
